NORAD_CAT_ID,OBJECT_NAME,OBJECT_TYPE,EPOCH,MEAN_MOTION,ECCENTRICITY,INCLINATION,RA_OF_ASC_NODE,ARG_OF_PERICENTER,MEAN_ANOMALY,BSTAR,MEAN_MOTION_DOT,MEAN_MOTION_DDOT,TLE_LINE0,TLE_LINE1,TLE_LINE2,SEMIMAJOR_AXIS,PERIOD,APOGEE,PERIGEE,DECAYED
52836.0,STARLINK-4043,PAYLOAD,2022-12-14 19:49:07,15.08829487,0.0002139,53.2191,295.2369,33.4618,326.6509,-5.5549e-05,-1.172e-05,0.0,0 STARLINK-4043,1 52836U 22062G   22348.82578401 -.00001172  00000-0 -55549-4 0  9995,2 52836  53.2191 295.2369 0002139  33.4618 326.6509 15.08829487 27511,6917.913000000001,95.438,541.257,538.298,0.0
52836.0,STARLINK-4043,PAYLOAD,2022-12-15 06:56:49,15.08837314,0.0002182,53.2181,293.1558,32.3806,327.7319,0.00017027,2.422e-05,0.0,0 STARLINK-4043,1 52836U 22062G   22349.28946217  .00002422  00000-0  17027-3 0  9995,2 52836  53.2181 293.1558 0002182  32.3806 327.7319 15.08837314 27588,6917.889,95.438,541.263,538.244,0.0
52836.0,STARLINK-4043,PAYLOAD,2022-12-15 19:39:54,15.08845449,0.000212,53.2178,290.7788,33.4417,326.6709,0.00027171,4.039e-05,0.0,0 STARLINK-4043,1 52836U 22062G   22349.81938016  .00004039  00000-0  27171-3 0  9999,2 52836  53.2178 290.7788 0002120  33.4417 326.6709 15.08845449 27662,6917.864000000001,95.437,541.195,538.262,0.0
52836.0,STARLINK-4043,PAYLOAD,2022-12-16 13:09:09,15.08832132,0.0002073,53.2183,287.5068,36.232,323.8812,1.8891e-05,1.2e-07,0.0,0 STARLINK-4043,1 52836U 22062G   22350.54802801  .00000012  00000-0  18891-4 0  9990,2 52836  53.2183 287.5068 0002073  36.2320 323.8812 15.08832132 27775,6917.904,95.438,541.2040000000002,538.335,0.0
52836.0,STARLINK-4043,PAYLOAD,2022-12-16 21:06:05,15.08826862,0.0002262,53.2176,286.0198,39.3591,320.7566,-8.9885e-05,-1.718e-05,0.0,0 STARLINK-4043,1 52836U 22062G   22350.87923532 -.00001718  00000-0 -89885-4 0  9998,2 52836  53.2176 286.0198 0002262  39.3591 320.7566 15.08826862 27820,6917.920999999999,95.438,541.35,538.221,0.0
52836.0,STARLINK-4043,PAYLOAD,2022-12-17 12:59:57,15.08840727,0.0002183,53.2179,283.0458,40.2282,319.8871,0.00020365,2.954e-05,0.0,0 STARLINK-4043,1 52836U 22062G   22351.54163224  .00002954  00000-0  20365-3 0  9995,2 52836  53.2179 283.0458 0002183  40.2282 319.8871 15.08840727 27924,6917.878000000002,95.438,541.253,538.2330000000002,0.0
52836.0,STARLINK-4043,PAYLOAD,2022-12-17 17:46:06,15.08840137,0.0002118,53.2176,282.1538,40.3871,319.7278,0.0001904,2.743e-05,0.0,0 STARLINK-4043,1 52836U 22062G   22351.74035275  .00002743  00000-0  19040-3 0  9995,2 52836  53.2176 282.1538 0002118  40.3871 319.7278 15.08840137 27951,6917.88,95.438,541.21,538.28,0.0
52836.0,STARLINK-4043,PAYLOAD,2022-12-17 19:21:29,15.08837234,0.0002079,53.2176,281.8561,37.5703,322.5434,0.00020179,2.925e-05,0.0,0 STARLINK-4043,1 52836U 22062G   22351.80659404  .00002925  00000-0  20179-3 0  9995,2 52836  53.2176 281.8561 0002079  37.5703 322.5434 15.08837234 27962,6917.889,95.438,541.192,538.316,0.0
52836.0,STARLINK-4043,PAYLOAD,2022-12-18 12:50:43,15.08848293,0.0002111,53.218,278.5852,40.4461,319.6688,0.00033986,5.126e-05,0.0,0 STARLINK-4043,1 52836U 22062G   22352.53523022  .00005126  00000-0  33986-3 0  9998,2 52836  53.2180 278.5852 0002111  40.4461 319.6688 15.08848293 28072,6917.855,95.437,541.18,538.26,0.0
52836.0,STARLINK-4043,PAYLOAD,2022-12-18 19:12:16,15.08849793,0.0002157,53.2178,277.396,42.2482,317.8676,0.00038608,5.863e-05,0.0,0 STARLINK-4043,1 52836U 22062G   22352.80018907  .00005863  00000-0  38608-3 0  9993,2 52836  53.2178 277.3960 0002157  42.2482 317.8676 15.08849793 28117,6917.85,95.437,541.2080000000002,538.2230000000002,0.0
52836.0,STARLINK-4043,PAYLOAD,2022-12-19 01:33:48,15.08853502,0.0002208,53.2175,276.2064,42.0812,318.035,0.00039194,5.957e-05,0.0,0 STARLINK-4043,1 52836U 22062G   22353.06514865  .00005957  00000-0  39194-3 0  9991,2 52836  53.2175 276.2064 0002208  42.0812 318.0350 15.08853502 28158,6917.839,95.437,541.232,538.177,0.0
52836.0,STARLINK-4043,PAYLOAD,2022-12-19 19:03:02,15.08851129,0.0002284,53.2174,272.9356,40.1441,319.972,0.00013325,1.834e-05,0.0,0 STARLINK-4043,1 52836U 22062G   22353.79378358  .00001834  00000-0  13325-3 0  9994,2 52836  53.2174 272.9356 0002284  40.1441 319.9720 15.08851129 28261,6917.846,95.437,541.2909999999998,538.131,0.0
52836.0,STARLINK-4043,PAYLOAD,2022-12-20 01:24:35,15.08851935,0.0002155,53.2178,271.7465,37.2118,322.9023,0.00016813,2.389e-05,0.0,0 STARLINK-4043,1 52836U 22062G   22354.05874119  .00002389  00000-0  16813-3 0  9991,2 52836  53.2178 271.7465 0002155  37.2118 322.9023 15.08851935 28308,6917.844,95.437,541.2,538.2180000000002,0.0
52836.0,STARLINK-4043,PAYLOAD,2022-12-20 02:59:58,15.08855,0.0002185,53.2177,271.4491,37.8145,322.3,0.00023842,3.510000000000001e-05,0.0,0 STARLINK-4043,1 52836U 22062G   22354.12497985  .00003510  00000-0  23842-3 0  9998,2 52836  53.2177 271.4491 0002185  37.8145 322.3000 15.08855000 28319,6917.835,95.437,541.211,538.188,0.0
52836.0,STARLINK-4043,PAYLOAD,2022-12-20 22:04:35,15.08844153,0.0002196,53.2176,267.8806,38.0589,322.0558,-5.5178e-05,-1.166e-05,0.0,0 STARLINK-4043,1 52836U 22062G   22354.91985869 -.00001166  00000-0 -55178-4 0  9993,2 52836  53.2176 267.8806 0002196  38.0589 322.0558 15.08844153 28439,6917.868,95.437,541.252,538.214,0.0
52836.0,STARLINK-4043,PAYLOAD,2022-12-21 04:26:09,15.08834326,0.0002219,53.2182,266.6919,38.4623,321.6527,-7.9658e-05,-1.556e-05,0.0,0 STARLINK-4043,1 52836U 22062G   22355.18482916 -.00001556  00000-0 -79658-4 0  9990,2 52836  53.2182 266.6919 0002219  38.4623 321.6527 15.08834326 28473,6917.898,95.438,541.298,538.2280000000002,0.0
52836.0,STARLINK-4043,PAYLOAD,2022-12-22 10:38:28,15.08844538,0.0002279,53.2181,261.04200000000003,39.242,320.8737,8.7257e-06,-1.49e-06,0.0,0 STARLINK-4043,1 52836U 22062G   22356.44338354 -.00000149  00000-0  87257-5 0  9997,2 52836  53.2181 261.0420 0002279  39.2420 320.8737 15.08844538 28669,6917.8669999999975,95.437,541.308,538.155,0.0
52836.0,STARLINK-4043,PAYLOAD,2022-12-22 18:35:24,15.08837969,0.0002228,53.218,259.5551,40.7405,319.3754,3.3808e-05,2.5e-06,0.0,0 STARLINK-4043,1 52836U 22062G   22356.77458727  .00000250  00000-0  33808-4 0  9994,2 52836  53.2180 259.5551 0002228  40.7405 319.3754 15.08837969 28717,6917.887,95.438,541.293,538.21,0.0
52836.0,STARLINK-4043,PAYLOAD,2022-12-22 23:21:33,15.08833851,0.0002192,53.218,258.663,48.484,311.634,7.6486e-05,9.29e-06,0.0,0 STARLINK-4043,1 52836U 22062G   22356.97330935  .00000929  00000-0  76486-4 0  9998,2 52836  53.2180 258.6630 0002192  48.4840 311.6340 15.08833851 28748,6917.899,95.438,541.281,538.248,0.0
52836.0,STARLINK-4043,PAYLOAD,2022-12-23 02:32:20,15.08825561,0.0002195,53.2182,258.0684,42.9514,317.1649,-1.7114000000000006e-05,-5.61e-06,0.0,0 STARLINK-4043,1 52836U 22062G   22357.10579857 -.00000561  00000-0 -17114-4 0  9999,2 52836  53.2182 258.0684 0002195  42.9514 317.1649 15.08825561 28767,6917.925,95.438,541.308,538.271,0.0
52836.0,STARLINK-4043,PAYLOAD,2022-12-23 10:29:16,15.08824123,0.0002182,53.2178,256.5817,38.7479,321.3669,5.6722e-05,6.14e-06,0.0,0 STARLINK-4043,1 52836U 22062G   22357.43699971  .00000614  00000-0  56722-4 0  9990,2 52836  53.2178 256.5817 0002182  38.7479 321.3669 15.08824123 28810,6917.929,95.439,541.303,538.284,0.0
52836.0,STARLINK-4043,PAYLOAD,2022-12-23 18:26:12,15.08832397,0.000215,53.2177,255.0949,37.1963,322.9178,7.4519e-05,8.98e-06,0.0,0 STARLINK-4043,1 52836U 22062G   22357.76819657  .00000898  00000-0  74519-4 0  9999,2 52836  53.2177 255.0949 0002150  37.1963 322.9178 15.08832397 28864,6917.904,95.438,541.256,538.281,0.0
52836.0,STARLINK-4043,PAYLOAD,2022-12-24 02:23:07,15.08842713,0.0002242,53.2178,253.6077,39.3512,320.7642,0.0001526,2.141e-05,0.0,0 STARLINK-4043,1 52836U 22062G   22358.09938875  .00002141  00000-0  15260-3 0  9990,2 52836  53.2178 253.6077 0002242  39.3512 320.7642 15.08842713 28918,6917.871999999999,95.437,541.288,538.186,0.0
52836.0,STARLINK-4043,PAYLOAD,2022-12-24 10:20:02,15.08846143,0.0002322,53.218,252.1209,40.0039,320.1123,0.00011399,1.527e-05,0.0,0 STARLINK-4043,1 52836U 22062G   22358.43058727  .00001527  00000-0  11399-3 0  9993,2 52836  53.2180 252.1209 0002322  40.0039 320.1123 15.08846143 28968,6917.861999999999,95.437,541.3330000000002,538.12,0.0
52836.0,STARLINK-4043,PAYLOAD,2022-12-24 16:41:35,15.08843239,0.0002387,53.2183,250.9318,42.0106,318.1068,3.6938e-05,3e-06,0.0,0 STARLINK-4043,1 52836U 22062G   22358.69555112  .00000300  00000-0  36938-4 0  9996,2 52836  53.2183 250.9318 0002387  42.0106 318.1068 15.08843239 29000,6917.87,95.437,541.387,538.0840000000002,0.0
52836.0,STARLINK-4043,PAYLOAD,2022-12-24 21:27:45,15.08832322,0.0001978,53.218,250.0391,32.1319,327.9794,1.8867e-06,-2.58e-06,0.0,0 STARLINK-4043,1 52836U 22062G   22358.89427787 -.00000258  00000-0  18867-5 0  9999,2 52836  53.2180 250.0391 0001978  32.1319 327.9794 15.08832322 29038,6917.904,95.438,541.137,538.4,0.0
52836.0,STARLINK-4043,PAYLOAD,2022-12-25 10:10:50,15.08822609,0.0002012,53.2181,247.6605,39.4118,320.7021,0.00026463,3.924e-05,0.0,0 STARLINK-4043,1 52836U 22062G   22359.42419848  .00003924  00000-0  26463-3 0  9999,2 52836  53.2181 247.6605 0002012  39.4118 320.7021 15.08822609 29116,6917.934,95.439,541.19,538.4069999999998,0.0
52836.0,STARLINK-4043,PAYLOAD,2022-12-25 16:32:23,15.08834529,0.000214,53.2176,246.4715,39.7227,320.3922,-3.1924e-06,-3.39e-06,0.0,0 STARLINK-4043,1 52836U 22062G   22359.68915948 -.00000339  00000-0 -31924-5 0  9998,2 52836  53.2176 246.4715 0002140  39.7227 320.3922 15.08834529 29159,6917.897,95.438,541.243,538.2819999999998,0.0
52836.0,STARLINK-4043,PAYLOAD,2022-12-26 02:04:42,15.08834932,0.0002264,53.2175,244.6869,38.7753,321.3401,-6.2349e-05,-1.28e-05,0.0,0 STARLINK-4043,1 52836U 22062G   22360.08660267 -.00001280  00000-0 -62349-4 0  9995,2 52836  53.2175 244.6869 0002264  38.7753 321.3401 15.08834932 29216,6917.896,95.438,541.327,538.195,0.0
